OBJECT_NAME,OBJECT_ID,EPOCH,MEAN_MOTION,ECCENTRICITY,INCLINATION,RA_OF_ASC_NODE,ARG_OF_PERICENTER,MEAN_ANOMALY,EPHEMERIS_TYPE,CLASSIFICATION_TYPE,NORAD_CAT_ID,ELEMENT_SET_NO,REV_AT_EPOCH,BSTAR,MEAN_MOTION_DOT,MEAN_MOTION_DDOT
IRIDIUM 135,2017-083A,2026-06-20T03:38:19.212864,14.34217696,.00021805,86.3968,320.7756,91.8620,268.2825,0,U,43070,999,44457,.9945222E-5,.48E-6,0
IRIDIUM 138,2017-083B,2026-06-20T04:14:51.165312,14.34217660,.00022898,86.3981,320.4609,86.7779,273.3679,0,U,43071,999,44456,.11266405E-4,.51E-6,0
IRIDIUM 116,2017-083C,2026-06-20T03:29:11.159520,14.34217407,.00019291,86.3961,320.7645,100.4785,259.6628,0,U,43072,999,44459,-.9724883E-5,-.7E-7,0
IRIDIUM 130,2017-083D,2026-06-20T02:43:30.617184,14.34219935,.0001948,86.3974,321.0529,93.8135,266.3284,0,U,43073,999,44453,.58021192E-4,.182E-5,0
IRIDIUM 151,2017-083E,2026-06-20T03:47:27.232512,14.34217407,.00020631,86.3962,320.8169,93.4193,266.7239,0,U,43074,999,44456,-.3947453E-5,.9E-7,0
IRIDIUM 134,2017-083F,2026-06-19T22:00:23.183136,14.34218163,.00021121,86.3969,320.9255,92.9381,267.2057,0,U,43075,999,44449,.53571014E-4,.17E-5,0
IRIDIUM 137,2017-083G,2026-06-20T03:20:03.196896,14.34217439,.00022482,86.3967,320.9259,104.0002,256.1443,0,U,43076,999,44459,-.8594371E-5,-.4E-7,0
IRIDIUM 141,2017-083H,2026-06-19T22:09:31.140576,14.34217481,.0002102,86.3961,320.8465,90.8846,269.2590,0,U,43077,999,44456,-.12455316E-4,-.15E-6,0
IRIDIUM 153,2017-083J,2026-06-20T07:03:27.422496,14.34217871,.00022182,86.3962,289.1716,89.9065,270.2385,0,U,43078,999,44572,.1173247E-4,.53E-6,0
IRIDIUM 131,2017-083K,2026-06-19T21:51:15.101280,14.34217604,.00022194,86.3972,321.0377,92.0797,268.0653,0,U,43079,999,44449,.26967289E-4,.95E-6,0
IRIDIUM 144,2018-030A,2026-06-20T07:12:35.387712,14.34218188,.00021378,86.3961,289.0979,97.7435,262.4004,0,U,43249,999,43058,.70331959E-4,.217E-5,0
IRIDIUM 149,2018-030B,2026-06-20T07:21:43.440192,14.34217926,.0002267,86.3959,289.0623,93.5471,266.5984,0,U,43250,999,43060,.17335855E-4,.68E-6,0
IRIDIUM 157,2018-030C,2026-06-20T06:08:39.460128,14.34217830,.00022148,86.3962,289.1369,94.2410,265.9039,0,U,43251,999,43057,.1677295E-4,.67E-6,0
IRIDIUM 140,2018-030D,2026-06-20T06:36:03.427488,14.34217948,.00021579,86.3960,289.1414,94.4133,265.7310,0,U,43252,999,43063,.19026531E-4,.73E-6,0
IRIDIUM 145,2018-030E,2026-06-19T20:14:59.421120,14.34217775,.00020562,86.3961,289.2940,102.1111,258.0316,0,U,43253,999,43050,.15072335E-4,.62E-6,0
IRIDIUM 146,2018-030F,2026-06-20T05:50:23.312832,14.34217156,.00021304,86.3961,289.1391,97.7925,262.3513,0,U,43254,999,43057,.58157217E-4,.183E-5,0
IRIDIUM 148,2018-030G,2026-06-20T06:45:11.469600,14.34217825,.00023058,86.3963,289.1664,96.4011,263.7448,0,U,43255,999,43061,.12120142E-4,.54E-6,0
IRIDIUM 142,2018-030H,2026-06-20T07:39:59.473440,14.34217743,.00021347,86.3959,289.0394,99.0423,261.1015,0,U,43256,999,43058,.17629656E-4,.69E-6,0
IRIDIUM 150,2018-030J,2026-06-20T06:54:19.424448,14.34217746,.00021533,86.3962,289.1690,94.2698,265.8744,0,U,43257,999,43060,.683064E-5,.39E-6,0
IRIDIUM 143,2018-030K,2026-06-20T06:26:55.419072,14.34218093,.00021332,86.3966,289.2697,96.7531,263.3907,0,U,43258,999,43053,.31749536E-4,.109E-5,0
IRIDIUM 161,2018-047C,2026-06-20T06:55:59.571552,14.43280100,.00025684,86.4482,87.1745,83.3146,276.8347,0,U,43478,999,42558,.78987042E-4,.286E-5,0
IRIDIUM 152,2018-047D,2026-06-20T04:07:10.324992,14.34218221,.000233,86.3956,87.0847,82.8515,277.2945,0,U,43479,999,42291,.65989599E-4,.205E-5,0
IRIDIUM 147,2018-047E,2026-06-20T04:16:18.268608,14.34218004,.00021334,86.3959,87.0872,86.0323,274.1117,0,U,43480,999,42291,.20289275E-4,.77E-6,0
IRIDIUM 110,2018-047F,2026-06-20T06:05:54.297024,14.34218469,.000254,86.3961,87.1473,80.9059,279.2424,0,U,43481,999,42291,.52889356E-4,.168E-5,0
IRIDIUM 162,2018-047G,2026-06-20T06:46:55.255008,14.43283267,.00022543,86.4482,87.0682,82.5309,277.6148,0,U,43482,999,42557,.73032414E-4,.266E-5,0
IRIDIUM 160,2018-061A,2026-06-20T04:47:54.500640,14.34217428,.00021739,86.3959,55.5377,85.4100,274.7344,0,U,43569,999,41380,-.9528158E-5,-.7E-7,0
IRIDIUM 166,2018-061B,2026-06-20T05:24:26.451360,14.34217956,.00021341,86.3958,55.4776,87.0789,273.0651,0,U,43570,999,41383,.9053831E-5,.45E-6,0
IRIDIUM 158,2018-061C,2026-06-20T04:38:46.474080,14.34217754,.0002195,86.3959,55.5008,82.9515,277.1930,0,U,43571,999,41379,.16398251E-4,.66E-6,0
IRIDIUM 165,2018-061D,2026-06-20T03:34:50.484288,14.34217443,.00020764,86.3961,55.5659,87.3864,272.7570,0,U,43572,999,41381,.5498554E-5,.35E-6,0
IRIDIUM 155,2018-061E,2026-06-20T04:20:30.434784,14.34217639,.00019847,86.3954,55.4212,83.0997,277.0425,0,U,43573,999,41378,-.1721341E-5,.15E-6,0
