IRIDIUM 135             
1 43070U 17083A   26171.15161126  .00000048  00000+0  99452-5 0  9998
2 43070  86.3968 320.7756 0002180  91.8620 268.2825 14.34217696444573
IRIDIUM 138             
1 43071U 17083B   26171.17698108  .00000051  00000+0  11266-4 0  9996
2 43071  86.3981 320.4609 0002289  86.7779 273.3679 14.34217660444565
IRIDIUM 116             
1 43072U 17083C   26171.14526805 -.00000007  00000+0 -97249-5 0  9997
2 43072  86.3961 320.7645 0001929 100.4785 259.6628 14.34217407444591
IRIDIUM 130             
1 43073U 17083D   26171.11354881  .00000182  00000+0  58021-4 0  9994
2 43073  86.3974 321.0529 0001948  93.8135 266.3284 14.34219935444531
IRIDIUM 151             
1 43074U 17083E   26171.15795408  .00000009  00000+0 -39475-5 0  9995
2 43074  86.3962 320.8169 0002063  93.4193 266.7239 14.34217407444564
IRIDIUM 134             
1 43075U 17083F   26170.91693499  .00000170  00000+0  53571-4 0  9996
2 43075  86.3969 320.9255 0002112  92.9381 267.2057 14.34218163444493
IRIDIUM 137             
1 43076U 17083G   26171.13892589 -.00000004  00000+0 -85944-5 0  9991
2 43076  86.3967 320.9259 0002248 104.0002 256.1443 14.34217439444593
IRIDIUM 141             
1 43077U 17083H   26170.92327709 -.00000015  00000+0 -12455-4 0  9993
2 43077  86.3961 320.8465 0002102  90.8846 269.2590 14.34217481444565
IRIDIUM 153             
1 43078U 17083J   26171.29406739  .00000053  00000+0  11732-4 0  9993
2 43078  86.3962 289.1716 0002218  89.9065 270.2385 14.34217871445729
IRIDIUM 131             
1 43079U 17083K   26170.91059145  .00000095  00000+0  26967-4 0  9999
2 43079  86.3972 321.0377 0002219  92.0797 268.0653 14.34217604444498
IRIDIUM 144             
1 43249U 18030A   26171.30040958  .00000217  00000+0  70332-4 0  9998
2 43249  86.3961 289.0979 0002137  97.7435 262.4004 14.34218188430587
IRIDIUM 149             
1 43250U 18030B   26171.30675278  .00000068  00000+0  17336-4 0  9998
2 43250  86.3959 289.0623 0002267  93.5471 266.5984 14.34217926430604
IRIDIUM 157             
1 43251U 18030C   26171.25601227  .00000067  00000+0  16773-4 0  9999
2 43251  86.3962 289.1369 0002214  94.2410 265.9039 14.34217830430574
IRIDIUM 140             
1 43252U 18030D   26171.27503967  .00000073  00000+0  19027-4 0  9996
2 43252  86.3960 289.1414 0002157  94.4133 265.7310 14.34217948430631
IRIDIUM 145             
1 43253U 18030E   26170.84374330  .00000062  00000+0  15072-4 0  9993
2 43253  86.3961 289.2940 0002056 102.1111 258.0316 14.34217775430504
IRIDIUM 146             
1 43254U 18030F   26171.24332538  .00000183  00000+0  58157-4 0  9998
2 43254  86.3961 289.1391 0002130  97.7925 262.3513 14.34217156430576
IRIDIUM 148             
1 43255U 18030G   26171.28138275  .00000054  00000+0  12120-4 0  9992
2 43255  86.3963 289.1664 0002305  96.4011 263.7448 14.34217825430618
IRIDIUM 142             
1 43256U 18030H   26171.31943835  .00000069  00000+0  17630-4 0  9990
2 43256  86.3959 289.0394 0002134  99.0423 261.1015 14.34217743430586
IRIDIUM 150             
1 43257U 18030J   26171.28772482  .00000039  00000+0  68306-5 0  9999
2 43257  86.3962 289.1690 0002153  94.2698 265.8744 14.34217746430609
IRIDIUM 143             
1 43258U 18030K   26171.26869698  .00000109  00000+0  31750-4 0  9994
2 43258  86.3966 289.2697 0002133  96.7531 263.3907 14.34218093430535
IRIDIUM 161             
1 43478U 18047C   26171.28888393  .00000286  00000+0  78987-4 0  9990
2 43478  86.4482  87.1745 0002568  83.3146 276.8347 14.43280100425582
IRIDIUM 152             
1 43479U 18047D   26171.17164728  .00000205  00000+0  65990-4 0  9999
2 43479  86.3956  87.0847 0002330  82.8515 277.2945 14.34218221422919
IRIDIUM 147             
1 43480U 18047E   26171.17798922  .00000077  00000+0  20289-4 0  9999
2 43480  86.3959  87.0872 0002133  86.0323 274.1117 14.34218004422912
IRIDIUM 110             
1 43481U 18047F   26171.25410066  .00000168  00000+0  52889-4 0  9991
2 43481  86.3961  87.1473 0002540  80.9059 279.2424 14.34218469422917
IRIDIUM 162             
1 43482U 18047G   26171.28258397  .00000266  00000+0  73032-4 0  9994
2 43482  86.4482  87.0682 0002254  82.5309 277.6148 14.43283267425574
IRIDIUM 160             
1 43569U 18061A   26171.19993635 -.00000007  00000+0 -95282-5 0  9994
2 43569  86.3959  55.5377 0002173  85.4100 274.7344 14.34217428413805
IRIDIUM 166             
1 43570U 18061B   26171.22530615  .00000045  00000+0  90538-5 0  9994
2 43570  86.3958  55.4776 0002134  87.0789 273.0651 14.34217956413838
IRIDIUM 158             
1 43571U 18061C   26171.19359345  .00000066  00000+0  16398-4 0  9994
2 43571  86.3959  55.5008 0002195  82.9515 277.1930 14.34217754413793
IRIDIUM 165             
1 43572U 18061D   26171.14919542  .00000035  00000+0  54986-5 0  9993
2 43572  86.3961  55.5659 0002076  87.3864 272.7570 14.34217443413812
IRIDIUM 155             
1 43573U 18061E   26171.18090781  .00000015  00000+0 -17213-5 0  9994
2 43573  86.3954  55.4212 0001984  83.0997 277.0425 14.34217639413786
